STARLINK-4261           
1 52868U 22062AQ  26068.26159278 -.00000918  00000+0 -39586-4 0  9997
2 52868  53.2186  26.0712 0001356  90.3405 269.7743 15.08834921205860
CSC-1                   
1 58022U 23155G   26068.74030489  .00008819  00000+0  54557-3 0  9994
2 58022  97.5446 139.7305 0007504 212.9992 147.0770 15.10035960132723
